ONEWEB-0435             
1 51632U 22012L   25177.52233949 -.00000588  00000+0 -17216-2 0  9994
2 51632  87.8831 107.2123 0002166  89.5431 270.5944 13.10371081164013
ONEWEB-0436             
1 51633U 22012M   25177.45125526  .00000060  00000+0  12129-3 0  9990
2 51633  87.9060  76.6638 0002065  82.8327 277.3039 13.17648049166837
ONEWEB-0439             
1 51635U 22012P   25177.20365013 -.00000228  00000+0 -69012-3 0  9993
2 51635  87.8827 107.2645 0001958  80.8319 279.3029 13.10370618163988
ONEWEB-0442             
1 51636U 22012Q   25177.44365758  .00000039  00000+0  67253-4 0  9990
2 51636  87.9071  76.7161 0001627  58.5500 301.5790 13.17649782166828
ONEWEB-0444             
1 51638U 22012S   25177.19369986  .00000293  00000+0  80316-3 0  9997
2 51638  87.8822 107.2692 0001965  83.8368 276.2983 13.10370299164007
ONEWEB-0445             
1 51639U 22012T   25177.52068752 -.00000529  00000+0 -15522-2 0  9992
2 51639  87.8820 107.1583 0002011  73.0081 287.1266 13.10371478162766
