<?xml version="1.0" encoding="UTF-8"?>
<ndm xmlns:xsi="http://www.w3.org/2001/XMLSchema-instance" xsi:noNamespaceSchemaLocation="https://sanaregistry.org/r/ndmxml_unqualified/ndmxml-2.0.0-master-2.0.xsd">
<omm id="CCSDS_OMM_VERS" version="2.0">
<header><CREATION_DATE/><ORIGINATOR/></header><body><segment><metadata><OBJECT_NAME>ONEWEB-0435</OBJECT_NAME><OBJECT_ID>2022-012L</OBJECT_ID><CENTER_NAME>EARTH</CENTER_NAME><REF_FRAME>TEME</REF_FRAME><TIME_SYSTEM>UTC</TIME_SYSTEM><MEAN_ELEMENT_THEORY>SGP4</MEAN_ELEMENT_THEORY></metadata><data><meanElements><EPOCH>2025-06-26T12:32:10.131936</EPOCH><MEAN_MOTION>13.10371081</MEAN_MOTION><ECCENTRICITY>.0002166</ECCENTRICITY><INCLINATION>87.8831</INCLINATION><RA_OF_ASC_NODE>107.2123</RA_OF_ASC_NODE><ARG_OF_PERICENTER>89.5431</ARG_OF_PERICENTER><MEAN_ANOMALY>270.5944</MEAN_ANOMALY></meanElements><tleParameters><EPHEMERIS_TYPE>0</EPHEMERIS_TYPE><CLASSIFICATION_TYPE>U</CLASSIFICATION_TYPE><NORAD_CAT_ID>51632</NORAD_CAT_ID><ELEMENT_SET_NO>999</ELEMENT_SET_NO><REV_AT_EPOCH>16401</REV_AT_EPOCH><BSTAR>-.17216E-2</BSTAR><MEAN_MOTION_DOT>-.588E-5</MEAN_MOTION_DOT><MEAN_MOTION_DDOT>0</MEAN_MOTION_DDOT></tleParameters></data></segment></body></omm>
<omm id="CCSDS_OMM_VERS" version="2.0">
<header><CREATION_DATE/><ORIGINATOR/></header><body><segment><metadata><OBJECT_NAME>ONEWEB-0436</OBJECT_NAME><OBJECT_ID>2022-012M</OBJECT_ID><CENTER_NAME>EARTH</CENTER_NAME><REF_FRAME>TEME</REF_FRAME><TIME_SYSTEM>UTC</TIME_SYSTEM><MEAN_ELEMENT_THEORY>SGP4</MEAN_ELEMENT_THEORY></metadata><data><meanElements><EPOCH>2025-06-26T10:49:48.454464</EPOCH><MEAN_MOTION>13.17648049</MEAN_MOTION><ECCENTRICITY>.0002065</ECCENTRICITY><INCLINATION>87.9060</INCLINATION><RA_OF_ASC_NODE>76.6638</RA_OF_ASC_NODE><ARG_OF_PERICENTER>82.8327</ARG_OF_PERICENTER><MEAN_ANOMALY>277.3039</MEAN_ANOMALY></meanElements><tleParameters><EPHEMERIS_TYPE>0</EPHEMERIS_TYPE><CLASSIFICATION_TYPE>U</CLASSIFICATION_TYPE><NORAD_CAT_ID>51633</NORAD_CAT_ID><ELEMENT_SET_NO>999</ELEMENT_SET_NO><REV_AT_EPOCH>16683</REV_AT_EPOCH><BSTAR>.12129E-3</BSTAR><MEAN_MOTION_DOT>.6E-6</MEAN_MOTION_DOT><MEAN_MOTION_DDOT>0</MEAN_MOTION_DDOT></tleParameters></data></segment></body></omm>
<omm id="CCSDS_OMM_VERS" version="2.0">
<header><CREATION_DATE/><ORIGINATOR/></header><body><segment><metadata><OBJECT_NAME>ONEWEB-0439</OBJECT_NAME><OBJECT_ID>2022-012P</OBJECT_ID><CENTER_NAME>EARTH</CENTER_NAME><REF_FRAME>TEME</REF_FRAME><TIME_SYSTEM>UTC</TIME_SYSTEM><MEAN_ELEMENT_THEORY>SGP4</MEAN_ELEMENT_THEORY></metadata><data><meanElements><EPOCH>2025-06-26T04:53:15.371232</EPOCH><MEAN_MOTION>13.10370618</MEAN_MOTION><ECCENTRICITY>.0001958</ECCENTRICITY><INCLINATION>87.8827</INCLINATION><RA_OF_ASC_NODE>107.2645</RA_OF_ASC_NODE><ARG_OF_PERICENTER>80.8319</ARG_OF_PERICENTER><MEAN_ANOMALY>279.3029</MEAN_ANOMALY></meanElements><tleParameters><EPHEMERIS_TYPE>0</EPHEMERIS_TYPE><CLASSIFICATION_TYPE>U</CLASSIFICATION_TYPE><NORAD_CAT_ID>51635</NORAD_CAT_ID><ELEMENT_SET_NO>999</ELEMENT_SET_NO><REV_AT_EPOCH>16398</REV_AT_EPOCH><BSTAR>-.69012E-3</BSTAR><MEAN_MOTION_DOT>-.228E-5</MEAN_MOTION_DOT><MEAN_MOTION_DDOT>0</MEAN_MOTION_DDOT></tleParameters></data></segment></body></omm>
<omm id="CCSDS_OMM_VERS" version="2.0">
<header><CREATION_DATE/><ORIGINATOR/></header><body><segment><metadata><OBJECT_NAME>ONEWEB-0442</OBJECT_NAME><OBJECT_ID>2022-012Q</OBJECT_ID><CENTER_NAME>EARTH</CENTER_NAME><REF_FRAME>TEME</REF_FRAME><TIME_SYSTEM>UTC</TIME_SYSTEM><MEAN_ELEMENT_THEORY>SGP4</MEAN_ELEMENT_THEORY></metadata><data><meanElements><EPOCH>2025-06-26T10:38:52.014912</EPOCH><MEAN_MOTION>13.17649782</MEAN_MOTION><ECCENTRICITY>.0001627</ECCENTRICITY><INCLINATION>87.9071</INCLINATION><RA_OF_ASC_NODE>76.7161</RA_OF_ASC_NODE><ARG_OF_PERICENTER>58.5500</ARG_OF_PERICENTER><MEAN_ANOMALY>301.5790</MEAN_ANOMALY></meanElements><tleParameters><EPHEMERIS_TYPE>0</EPHEMERIS_TYPE><CLASSIFICATION_TYPE>U</CLASSIFICATION_TYPE><NORAD_CAT_ID>51636</NORAD_CAT_ID><ELEMENT_SET_NO>999</ELEMENT_SET_NO><REV_AT_EPOCH>16682</REV_AT_EPOCH><BSTAR>.67253E-4</BSTAR><MEAN_MOTION_DOT>.39E-6</MEAN_MOTION_DOT><MEAN_MOTION_DDOT>0</MEAN_MOTION_DDOT></tleParameters></data></segment></body></omm>
<omm id="CCSDS_OMM_VERS" version="2.0">
<header><CREATION_DATE/><ORIGINATOR/></header><body><segment><metadata><OBJECT_NAME>ONEWEB-0444</OBJECT_NAME><OBJECT_ID>2022-012S</OBJECT_ID><CENTER_NAME>EARTH</CENTER_NAME><REF_FRAME>TEME</REF_FRAME><TIME_SYSTEM>UTC</TIME_SYSTEM><MEAN_ELEMENT_THEORY>SGP4</MEAN_ELEMENT_THEORY></metadata><data><meanElements><EPOCH>2025-06-26T04:38:55.667904</EPOCH><MEAN_MOTION>13.10370299</MEAN_MOTION><ECCENTRICITY>.0001965</ECCENTRICITY><INCLINATION>87.8822</INCLINATION><RA_OF_ASC_NODE>107.2692</RA_OF_ASC_NODE><ARG_OF_PERICENTER>83.8368</ARG_OF_PERICENTER><MEAN_ANOMALY>276.2983</MEAN_ANOMALY></meanElements><tleParameters><EPHEMERIS_TYPE>0</EPHEMERIS_TYPE><CLASSIFICATION_TYPE>U</CLASSIFICATION_TYPE><NORAD_CAT_ID>51638</NORAD_CAT_ID><ELEMENT_SET_NO>999</ELEMENT_SET_NO><REV_AT_EPOCH>16400</REV_AT_EPOCH><BSTAR>.80316E-3</BSTAR><MEAN_MOTION_DOT>.293E-5</MEAN_MOTION_DOT><MEAN_MOTION_DDOT>0</MEAN_MOTION_DDOT></tleParameters></data></segment></body></omm>
<omm id="CCSDS_OMM_VERS" version="2.0">
<header><CREATION_DATE/><ORIGINATOR/></header><body><segment><metadata><OBJECT_NAME>ONEWEB-0445</OBJECT_NAME><OBJECT_ID>2022-012T</OBJECT_ID><CENTER_NAME>EARTH</CENTER_NAME><REF_FRAME>TEME</REF_FRAME><TIME_SYSTEM>UTC</TIME_SYSTEM><MEAN_ELEMENT_THEORY>SGP4</MEAN_ELEMENT_THEORY></metadata><data><meanElements><EPOCH>2025-06-26T12:29:47.401728</EPOCH><MEAN_MOTION>13.10371478</MEAN_MOTION><ECCENTRICITY>.0002011</ECCENTRICITY><INCLINATION>87.8820</INCLINATION><RA_OF_ASC_NODE>107.1583</RA_OF_ASC_NODE><ARG_OF_PERICENTER>73.0081</ARG_OF_PERICENTER><MEAN_ANOMALY>287.1266</MEAN_ANOMALY></meanElements><tleParameters><EPHEMERIS_TYPE>0</EPHEMERIS_TYPE><CLASSIFICATION_TYPE>U</CLASSIFICATION_TYPE><NORAD_CAT_ID>51639</NORAD_CAT_ID><ELEMENT_SET_NO>999</ELEMENT_SET_NO><REV_AT_EPOCH>16276</REV_AT_EPOCH><BSTAR>-.15522E-2</BSTAR><MEAN_MOTION_DOT>-.529E-5</MEAN_MOTION_DOT><MEAN_MOTION_DDOT>0</MEAN_MOTION_DDOT></tleParameters></data></segment></body></omm>

</ndm>
